[{"OBJECT_NAME":"COSMOS 2524","OBJECT_ID":"2017-076A","EPOCH":"2026-03-09T23:23:35.640384","MEAN_MOTION":13.97416908,"ECCENTRICITY":0.00095468,"INCLINATION":67.1447,"RA_OF_ASC_NODE":73.9471,"ARG_OF_PERICENTER":248.4451,"MEAN_ANOMALY":111.5616,"EPHEMERIS_TYPE":0,"CLASSIFICATION_TYPE":"U","NORAD_CAT_ID":43032,"ELEMENT_SET_NO":999,"REV_AT_EPOCH":42174,"BSTAR":0.00037957358,"MEAN_MOTION_DOT":4.59e-6,"MEAN_MOTION_DDOT":0},{"OBJECT_NAME":"COSMOS 1275 DEB","OBJECT_ID":"1981-053PF","EPOCH":"2026-02-27T06:50:28.299264","MEAN_MOTION":13.78459396,"ECCENTRICITY":0.0129079,"INCLINATION":82.7487,"RA_OF_ASC_NODE":263.3142,"ARG_OF_PERICENTER":157.9356,"MEAN_ANOMALY":202.743,"EPHEMERIS_TYPE":0,"CLASSIFICATION_TYPE":"U","NORAD_CAT_ID":42095,"ELEMENT_SET_NO":999,"REV_AT_EPOCH":61445,"BSTAR":0.0012421,"MEAN_MOTION_DOT":1.352e-5,"MEAN_MOTION_DDOT":0}]
